[Satellite]
VERSION=1.1
NAME=FLOCK 3P-5
NICKNAME=FLOCK 3P-5
TLE1=1 41971U 17008Z   18021.15204417  .00002920  00000-0  12408-3 0  9995
TLE2=2 41971  97.4695  86.7639 0009428 142.6418 217.5476 15.23823279 51484
